ONEWEB-0501             
1 54119U 22138G   24107.94213412  .00000056  00000+0  10730-3 0  9990
2 54119  87.9094 102.4510 0001376  92.8050 267.3240 13.19725400 72446
ONEWEB-0502             
1 54120U 22138H   24107.85210418  .00000081  00000+0  17076-3 0  9993
2 54120  87.9093 102.4588 0001580  86.9323 273.1990 13.19725549 72458
ONEWEB-0503             
1 54121U 22138J   24107.68938816  .00000127  00000+0  28404-3 0  9992
2 54121  87.9091 102.4982 0002098  76.3180 283.8186 13.19723835 72422
ONEWEB-0504             
1 54122U 22138K   24107.90422136 -.00000057  00000+0 -17436-3 0  9998
2 54122  87.9096 102.4600 0001631  79.0856 281.0460 13.19724180 72460
ONEWEB-0505             
1 54123U 22138L   24107.67361493  .00000067  00000+0  13461-3 0  9994
2 54123  87.9093 102.5018 0001136  86.0970 274.0292 13.19725951 72414
ONEWEB-0506             
1 54124U 22138M   24107.95161281  .00000046  00000+0  83400-4 0  9997
2 54124  87.9093 102.4434 0001650  89.4924 270.6398 13.19724844 72445
